     2.11           N: GPS NAV DATA                         RINEX VERSION / TYPE
teqc  2019Feb25                         20221121 12:27:00UTCPGM / RUN BY / DATE
OSX ker:10.11.6|Core i5|gcc 4.3 -m64|OSX ker:10.10+|=+      COMMENT
    6.5193D-09  1.4901D-08 -5.9605D-08 -1.1921D-07          ION ALPHA
    7.7824D+04  3.2768D+04 -6.5536D+04 -1.9661D+05          ION BETA
    6.519258022308D-09 7.993605777301D-15    61440     1548 DELTA-UTC: A0,A1,T,W
                                                            END OF HEADER
32 09  9  5 23 58 56.0 2.019619569182D-04-7.048583938740D-12 0.000000000000D+00
    6.200000000000D+01-4.493750000000D+01 4.909133056525D-09 2.856275998446D+00
   -2.272427082062D-06 1.325238333084D-02 3.328546881676D-06 5.153724031448D+03
    6.047360000000D+05 1.862645149231D-07-1.020806477350D+00 1.750886440277D-07
    9.622865255192D-01 3.133750000000D+02-1.124300780715D+00-8.271773123981D-09
   -4.446613790741D-10 1.000000000000D+00 1.547000000000D+03 0.000000000000D+00
    2.000000000000D+00 0.000000000000D+00-3.259629011154D-09 6.200000000000D+01
    5.976180000000D+05 4.000000000000D+00
20 09  9  5 23 59 44.0 7.298728451133D-05-9.094947017729D-13 0.000000000000D+00
    1.300000000000D+01-2.740625000000D+01 5.570946337991D-09 1.112310655861D-01
   -1.404434442520D-06 3.834237810224D-03 2.730637788773D-06 5.153772930145D+03
    6.047840000000D+05-3.352761268616D-08-1.132554623035D+00 3.166496753693D-08
    9.402374300801D-01 3.141562500000D+02 1.328295238863D+00-8.882512849457D-09
   -2.982267080537D-10 1.000000000000D+00 1.547000000000D+03 0.000000000000D+00
    2.000000000000D+00 0.000000000000D+00-7.450580596924D-09 1.300000000000D+01
    5.976180000000D+05 4.000000000000D+00
